[{"OBJECT_NAME":"CENTAURI-6","OBJECT_ID":"2024-066K","EPOCH":"2026-03-09T07:44:58.674048","MEAN_MOTION":15.04786474,"ECCENTRICITY":0.00025343,"INCLINATION":45.6063,"RA_OF_ASC_NODE":55.7055,"ARG_OF_PERICENTER":285.4438,"MEAN_ANOMALY":74.6166,"EPHEMERIS_TYPE":0,"CLASSIFICATION_TYPE":"U","NORAD_CAT_ID":59451,"ELEMENT_SET_NO":999,"REV_AT_EPOCH":10507,"BSTAR":0.00052686271,"MEAN_MOTION_DOT":7.311e-5,"MEAN_MOTION_DDOT":0},{"OBJECT_NAME":"YUNYAO-1 45","OBJECT_ID":"2025-059C","EPOCH":"2026-03-09T23:25:14.115648","MEAN_MOTION":15.10348188,"ECCENTRICITY":0.00171316,"INCLINATION":97.6099,"RA_OF_ASC_NODE":251.0366,"ARG_OF_PERICENTER":134.7318,"MEAN_ANOMALY":225.5309,"EPHEMERIS_TYPE":0,"CLASSIFICATION_TYPE":"U","NORAD_CAT_ID":63346,"ELEMENT_SET_NO":999,"REV_AT_EPOCH":5332,"BSTAR":0.00033512738,"MEAN_MOTION_DOT":5.451e-5,"MEAN_MOTION_DDOT":0}]
